XRISM                   
1 57800U 23137A   23274.89667040  .00006126  00000+0  49917-3 0  9991
2 57800  31.0033 218.9395 0010087 165.1553 194.9379 14.98051584  3652
